[{"OBJECT_NAME":"SENTINEL-1A","OBJECT_ID":"2014-016A","EPOCH":"2026-03-10T00:10:49.728000","MEAN_MOTION":14.5919833,"ECCENTRICITY":0.00013278,"INCLINATION":98.1822,"RA_OF_ASC_NODE":77.9733,"ARG_OF_PERICENTER":84.6895,"MEAN_ANOMALY":275.4456,"EPHEMERIS_TYPE":0,"CLASSIFICATION_TYPE":"U","NORAD_CAT_ID":39634,"ELEMENT_SET_NO":999,"REV_AT_EPOCH":63555,"BSTAR":5.6499537e-5,"MEAN_MOTION_DOT":2.21e-6,"MEAN_MOTION_DDOT":0},{"OBJECT_NAME":"IRIDIUM 33 DEB","OBJECT_ID":"1997-051XX","EPOCH":"2026-03-08T03:52:22.157184","MEAN_MOTION":14.57501253,"ECCENTRICITY":0.00234012,"INCLINATION":86.3788,"RA_OF_ASC_NODE":6.3243,"ARG_OF_PERICENTER":171.8992,"MEAN_ANOMALY":253.3277,"EPHEMERIS_TYPE":0,"CLASSIFICATION_TYPE":"U","NORAD_CAT_ID":37562,"ELEMENT_SET_NO":999,"REV_AT_EPOCH":87572,"BSTAR":0.001666019,"MEAN_MOTION_DOT":7.621e-5,"MEAN_MOTION_DDOT":0}]
